#dP2019 12 30  0  0  0.00000000      96 __u+U ITR00 FIT  IAC
## 2086  86400.00000000   900.00000000 58847 0.0000000000000
+  106   C06C07C08C09C10C11C12C13C14C16C19C20C21C22C23C24C25
+        C26C27C28C29C30C32C33C34C35C36C37E01E02E03E04E05E07
+        E08E09E11E12E13E14E15E18E19E21E24E25E26E27E30E31E33
+        E36G01G02G03G04G05G06G07G08G09G10G11G12G13G14G15G16
+        G17G18G19G20G21G22G23G24G25G26G27G28G29G30G31G32R01
+        R02R03R04R05R07R08R09R11R12R13R14R15R16R17R18R19R20
+        R21R22R23R26  0  0  0  0  0  0  0  0  0  0  0  0  0
++         9  9  9  8  9  8  8  9  8  8  8  8  8  7  8  8  8
++         8  8  8  8  8  8  8  8  8  8  9  4  4  4  4  4  4
++         4  4  4  4  4  4  4  4  4  4  4  5  4  4  4  4  4
++         4  3  3  3  4  3  3  3  3  3  4  3  4  3  4  4  3
++         3  4  3  4  3  3  3  4  4  3  3  3  3  3  3  4  6
++         5  5  6  6  5  5  5  5  5  6  5  5  6  5  5  6  6
++         6  5  5  8  0  0  0  0  0  0  0  0  0  0  0  0  0
%c M  cc GPS ccc cccc cccc cccc cccc ccccc ccccc ccccc ccccc
%c cc cc ccc ccc cccc cccc cccc cccc ccccc ccccc ccccc ccccc
%f  0.0000000  0.000000000  0.00000000000  0.000000000000000
%f  0.0000000  0.000000000  0.00000000000  0.000000000000000
%i    0    0    0    0      0      0      0      0         0
%i    0    0    0    0      0      0      0      0         0
/* INFORMATION & ANALYSIS CENTER (IAC)      ULTRA-RAPID DATA
/* S/V CLOCKS ARE ALIGNED TO GNSS TIME                      
/* G:C1WC2W R:C1PC2P E:C1XC5X C:C2IC6I J:C1CC2S             
/* PCV:IGS14_2082 OL/AL:FES2004  NONE     YN ORB:CoN CLK:CoN
*  2019 12 30 23 45  0.00000000
PC06 -11427.725833  37479.001187  16447.524119    271.828994
PC07 -13436.382497  22359.313169 -32966.212385    132.623849
PC08 -24369.570381  28575.809557  18948.653133    -69.606493
PC09  -2867.824557  42214.095181   2270.570954    226.182197
PC10   3513.722392  28214.822274 -30836.304069   -512.849160
PC11  -2935.575278  26501.251060   8200.450510    -92.034004
PC12 -13851.405585  21980.430099 -10101.383586    306.090929
PC13 -10762.626665  29143.935000  28456.380575    182.119104
PC14   6735.915335  22506.739854  15044.473985    393.275530
PC16  -9155.778479  38628.748184  14510.525136   -885.050789
PC19 -14583.923163 -22683.717509  -7179.237267    284.734232
PC20   1365.687871 -19112.223832 -20286.553014   -489.087486
PC21 -17054.895698   3989.724222  21738.626028     62.615152
PC22 -22322.517595 -13200.023523  10336.617622   -598.926365
PC23  24716.932153   3622.550149 -12441.468180   -869.134266
PC24 -12304.961451  16412.662863 -18911.107515   -891.721371
PC25   9560.591175  13857.142672 -22261.889854   -465.053239
PC26 -25539.740242   9979.044744  -5089.532982    516.032091
PC27  17026.550273 -13993.859967  17097.974071    251.930400
PC28  14583.630955   6443.782643  22910.105476    242.923372
PC29  -4509.590033 -22893.433166 -15306.414571    166.985238
PC30   8687.059503 -26463.215894   1560.435875    248.469869
PC32  17021.784394  -4126.139788 -21717.300615   -854.560124
PC33  14608.907228  22631.523222   7264.567292   -728.350795
PC34  -8550.724031  26549.986744  -1182.781118   -352.598488
PC35 -14806.445740  -6073.993206 -22853.072266   -714.977902
PC36  -8993.350872 -14163.147746  22322.929660   -858.962065
PC37  26012.992902  -9065.620757   4543.383496   -939.369357
PE01  27538.611628   9298.625484  -5617.565790   -763.450627
PE02 -27550.898531  -9258.636785   5556.248640    102.390738
PE03 -18365.462802 -15087.149030  17643.264956   -249.705658
PE04  15962.864877  -6295.730725 -24121.799307   -435.765426
PE05 -10025.327842 -27841.041209    757.302615   -418.252667
PE07  -4119.423229  24246.523972  16464.092403   -320.069360
PE08 -15707.621293   6552.745241  24212.474651   6241.694210
PE09   3798.434791 -24299.090201 -16484.139391   6204.344617
PE11  15019.833635 -24534.622138  -6947.761440    583.148749
PE12  22892.599368 -14217.299049  12242.856441   6025.418112
PE13 -15072.083259  24563.065452   6768.875594    396.902564
PE14  14737.152876   1563.939569  17997.783822   -850.029575
PE15 -22779.646598  14565.599138 -12029.433420    882.527080
PE18 -20675.445769  -1577.410247 -25204.877822   -946.276314
PE19  17897.685905  17075.097509 -16263.715791     -2.182126
PE21  12708.453144  16651.452274 -20915.474678   -574.288636
PE24   9835.444803 -14310.106097  23968.310014   5688.458770
PE25 -12586.867869 -16669.752187  20978.359926   -499.843486
PE26   1692.408893  20122.079785  21650.389719   3702.689032
PE27  -9709.102673  14328.266594 -24004.970168    313.908993
PE30 -26409.913795   3428.737859 -12907.007006   4263.412302
PE31  26352.285206  -3609.456751  13003.675711   -471.125096
PE33  17133.243416   4009.342331  23814.658443   -471.231621
PE36  -1470.851376 -20167.095192 -21605.012538    617.544285
PG01   7844.874131 -18489.786798 -17412.263246   -246.833435
PG02 -22034.135364  14591.227727  -1314.579536   -376.619455
PG03  -4281.410132 -17641.198713 -19477.483185    -62.760074
PG04    880.871075 -26508.781168  -1193.636167    -27.498754
PG05 -16746.065817   7006.441880  19315.818124     -5.416809
PG06 -22786.086429   3746.610987 -13099.756706   -168.750162
PG07  -9906.024036 -12075.187142  21792.480158   -181.489145
PG08   6617.357597 -23069.293007  11151.732859    -18.558941
PG09  -7144.718082 -24100.826430   8500.262399   -121.045946
PG10  24099.332866  11262.113909  -2070.361114   -191.822475
PG11   6259.390496 -24248.997044  -9749.681051   -404.095722
PG12   -934.124827  16244.018211 -21250.022973    167.565589
PG13 -12765.882745  16629.275193  16137.536022    -23.200523
PG14  15100.081106  -2511.375357 -21363.103970    -41.704759
PG15  -4311.075901  23948.418985   9870.588481   -261.991660
PG16  17822.626599  -3748.258220  19296.289166   -108.487265
PG17 -13368.765586  -9525.441370 -20468.571973    190.112060
PG18  14462.564558 -19541.745600 -11088.926519    110.239617
PG19 -14856.785851   -918.673473 -22290.139274   -219.119699
PG20  20474.794906  14680.381355   8629.950882    527.733930
PG21  12553.672848  10189.444810  21842.071321    -62.945088
PG22   4083.218976 -15373.351676 -21058.336233   -780.027497
PG23  -1657.318730 -26296.597316    387.296584   -146.225000
PG24  -8781.685072  19831.881368 -15269.357140     -6.907546
PG25  13200.099491  18369.768330 -14353.702576    -16.838028
PG26  23482.728464   1733.573007  12472.937484    117.010929
PG27  12306.462470 -13678.562851  18915.048283   -166.532835
PG28 -22897.755083 -12844.475988  -2896.479130    747.912828
PG29   4723.726807  24689.818757   8513.680067      4.900526
PG30 -19421.039659  -3951.992300  17802.144988   -118.031347
PG31  23981.160094  -5162.905693 -10780.449078    -13.323399
PG32  14741.993907   8318.640977 -20437.987001    171.065896
PR01   4287.638343  19936.968070  15309.609046     54.917782
PR02  15185.838667  19988.128533  -4668.345311    404.927456
PR03  15289.808112   7047.118935 -19149.812371      7.375292
PR04   6440.971109  -9721.513726 -22667.107888     33.824179
PR05  -5910.212057 -20960.526346 -13258.851717     42.208326
PR07 -15098.608773  -6428.336701  19540.950520    -31.397264
PR08  -6607.778040   9755.533157  22670.324064     13.405603
PR09 -19753.793853  -6396.348898  14875.993126    108.880035
PR11 -18300.533428   8388.463887 -15675.808577     14.821765
PR12  -1351.719979  10926.022913 -22981.371967     92.595272
PR13  17351.685804   7252.785913 -17250.936313    -32.900358
PR14  25465.068970   -414.870871  -1344.571997     46.584725
PR15  18957.743990  -7940.716870  15132.667689    105.576375
PR16    886.953439 -11127.412547  22918.542162     -0.711804
PR17  13405.078589  -4590.298751  21236.571866    288.278524
PR18  14659.621595 -18717.493818   9192.989229     19.839987
PR19   8838.664278 -22695.660237  -7582.927992    -71.580872
PR20  -3858.229326 -12874.068434 -21656.295817   -400.245488
PR21 -13569.995199   5379.802584 -20902.521890    -95.096182
PR22 -14152.327532  20336.122652  -6307.271145     -7.729971
PR23  -4664.372005  21293.879361  13245.462569    276.639546
PR26  -1560.207479 -15970.754563 -19821.303420   -413.812233
EOF
